start=new Date('2022-07-22T00:00:00.000Z').valueOf();
sats=[{"FILE":"3519265","TLE_LINE2":"2 48564  53.0551 328.4722 0001335  89.7257 270.3885 15.06382878 65200","INCLINATION":"53.0551","RCS_SIZE":"LARGE","REV_AT_EPOCH":"6520","ARG_OF_PERICENTER":"89.7257","OBJECT_NAME":"STARLINK-2190","MEAN_MOTION_DDOT":"0.0000000000000","OBJECT_TYPE":"PAYLOAD","MEAN_MOTION":"15.06382878","LAUNCH_DATE":"2021-05-15","MEAN_MOTION_DOT":"-0.00004682","CENTER_NAME":"EARTH","DECAY_DATE":null,"SEMIMAJOR_AXIS":"6925.401","RA_OF_ASC_NODE":"328.4722","REF_FRAME":"TEME","NORAD_CAT_ID":"48564","ELEMENT_SET_NO":"999","ECCENTRICITY":"0.00013350","TIME_SYSTEM":"UTC","GP_ID":"208603935","MEAN_ELEMENT_THEORY":"SGP4","TLE_LINE1":"1 48564U 21041M   22202.75528076 -.00004682  00000-0 -29577-3 0  9998","BSTAR":"-0.00029577000000","EPOCH":"2022-07-21T18:07:36.257664","SITE":"AFETR","PERIAPSIS":"546.341","MEAN_ANOMALY":"270.3885","PERIOD":"95.593","APOAPSIS":"548.191","COUNTRY_CODE":"US","CLASSIFICATION_TYPE":"U","OBJECT_ID":"2021-041M","EPHEMERIS_TYPE":"0"},{"CLASSIFICATION_TYPE":"U","OBJECT_ID":"2021-041N","COUNTRY_CODE":"US","EPHEMERIS_TYPE":"0","BSTAR":"0.00013127000000","EPOCH":"2022-07-21T19:36:29.035008","SITE":"AFETR","MEAN_ANOMALY":"268.6906","PERIAPSIS":"546.310","APOAPSIS":"548.277","PERIOD":"95.594","MEAN_ELEMENT_THEORY":"SGP4","TLE_LINE1":"1 48565U 21041N   22202.81700272  .00001673  00000-0  13127-3 0  9995","NORAD_CAT_ID":"48565","ELEMENT_SET_NO":"999","ECCENTRICITY":"0.00014200","TIME_SYSTEM":"UTC","GP_ID":"208604680","RA_OF_ASC_NODE":"328.1744","REF_FRAME":"TEME","SEMIMAJOR_AXIS":"6925.428","MEAN_MOTION_DDOT":"0.0000000000000","OBJECT_NAME":"STARLINK-2191","OBJECT_TYPE":"PAYLOAD","MEAN_MOTION_DOT":"0.00001673","MEAN_MOTION":"15.06374034","LAUNCH_DATE":"2021-05-15","DECAY_DATE":null,"CENTER_NAME":"EARTH","REV_AT_EPOCH":"6521","ARG_OF_PERICENTER":"91.4245","FILE":"3519265","TLE_LINE2":"2 48565  53.0544 328.1744 0001420  91.4245 268.6906 15.06374034 65216","INCLINATION":"53.0544","RCS_SIZE":"LARGE"},{"PERIAPSIS":"546.192","MEAN_ANOMALY":"277.5254","PERIOD":"95.593","APOAPSIS":"548.364","EPOCH":"2022-07-21T18:32:49.299648","BSTAR":"-0.00028273000000","SITE":"AFETR","COUNTRY_CODE":"US","OBJECT_ID":"2021-041P","CLASSIFICATION_TYPE":"U","EPHEMERIS_TYPE":"0","ELEMENT_SET_NO":"999","TIME_SYSTEM":"UTC","NORAD_CAT_ID":"48566","ECCENTRICITY":"0.00015680","GP_ID":"208581062","TLE_LINE1":"1 48566U 21041P   22202.77279282 -.00004488  00000-0 -28273-3 0  9990","MEAN_ELEMENT_THEORY":"SGP4","MEAN_MOTION":"15.06378853","LAUNCH_DATE":"2021-05-15","MEAN_MOTION_DOT":"-0.00004488","CENTER_NAME":"EARTH","DECAY_DATE":null,"OBJECT_NAME":"STARLINK-2214","MEAN_MOTION_DDOT":"0.0000000000000","OBJECT_TYPE":"PAYLOAD","SEMIMAJOR_AXIS":"6925.413","RA_OF_ASC_NODE":"338.3519","REF_FRAME":"TEME","INCLINATION":"53.0550","RCS_SIZE":"MEDIUM","FILE":"3519187","TLE_LINE2":"2 48566  53.0550 338.3519 0001568  82.5913 277.5254 15.06378853 65468","ARG_OF_PERICENTER":"82.5913","REV_AT_EPOCH":"6546"},{"MEAN_MOTION_DDOT":"0.0000000000000","OBJECT_NAME":"STARLINK-2215","OBJECT_TYPE":"PAYLOAD","MEAN_MOTION_DOT":"-0.00008826","MEAN_MOTION":"15.06365312","LAUNCH_DATE":"2021-05-15","DECAY_DATE":null,"CENTER_NAME":"EARTH","REF_FRAME":"TEME","RA_OF_ASC_NODE":"338.3250","SEMIMAJOR_AXIS":"6925.455","FILE":"3519188","TLE_LINE2":"2 48567  53.0550 338.3250 0001697  91.9754 268.1429 15.06365312 65467","INCLINATION":"53.0550","RCS_SIZE":"LARGE","REV_AT_EPOCH":"6546","ARG_OF_PERICENTER":"91.9754","EPOCH":"2022-07-21T18:54:03.741120","BSTAR":"-0.00057485000000","SITE":"AFETR","MEAN_ANOMALY":"268.1429","PERIAPSIS":"546.145","APOAPSIS":"548.495","PERIOD":"95.594","OBJECT_ID":"2021-041Q","CLASSIFICATION_TYPE":"U","COUNTRY_CODE":"US","EPHEMERIS_TYPE":"0","ELEMENT_SET_NO":"999","NORAD_CAT_ID":"48567","TIME_SYSTEM":"UTC","ECCENTRICITY":"0.00016970","GP_ID":"208580574","MEAN_ELEMENT_THEORY":"SGP4","TLE_LINE1":"1 48567U 21041Q   22202.78754330 -.00008826  00000-0 -57485-3 0  9991"},{"TLE_LINE1":"1 48568U 21041R   22202.73317505 -.00001463  00000-0 -79374-4 0  9998","MEAN_ELEMENT_THEORY":"SGP4","GP_ID":"208603435","ELEMENT_SET_NO":"999","NORAD_CAT_ID":"48568","TIME_SYSTEM":"UTC","ECCENTRICITY":"0.00012440","EPHEMERIS_TYPE":"0","COUNTRY_CODE":"US","OBJECT_ID":"2021-041R","CLASSIFICATION_TYPE":"U","PERIOD":"95.593","APOAPSIS":"548.116","PERIAPSIS":"546.393","MEAN_ANOMALY":"276.3256","SITE":"AFETR","EPOCH":"2022-07-21T17:35:46.324320","BSTAR":"-0.00007937400000","ARG_OF_PERICENTER":"83.7875","REV_AT_EPOCH":"6519","RCS_SIZE":"LARGE","INCLINATION":"53.0559","TLE_LINE2":"2 48568  53.0559 328.5612 0001244  83.7875 276.3256 15.06386618 65192","FILE":"3519265","SEMIMAJOR_AXIS":"6925.390","REF_FRAME":"TEME","RA_OF_ASC_NODE":"328.5612","CENTER_NAME":"EARTH","DECAY_DATE":null,"MEAN_MOTION":"15.06386618","LAUNCH_DATE":"2021-05-15","MEAN_MOTION_DOT":"-0.00001463","OBJECT_TYPE":"PAYLOAD","OBJECT_NAME":"STARLINK-2217","MEAN_MOTION_DDOT":"0.0000000000000"},{"ARG_OF_PERICENTER":"64.9771","REV_AT_EPOCH":"6521","RCS_SIZE":"LARGE","INCLINATION":"53.0538","TLE_LINE2":"2 48569  53.0538 328.1511 0001437  64.9771 295.1367 15.06380625 65211","FILE":"3519265","REF_FRAME":"TEME","RA_OF_ASC_NODE":"328.1511","SEMIMAJOR_AXIS":"6925.408","DECAY_DATE":null,"CENTER_NAME":"EARTH","MEAN_MOTION_DOT":"-0.00001452","LAUNCH_DATE":"2021-05-15","MEAN_MOTION":"15.06380625","OBJECT_TYPE":"PAYLOAD","MEAN_MOTION_DDOT":"0.0000000000000","OBJECT_NAME":"STARLINK-2219","TLE_LINE1":"1 48569U 21041S   22202.82533214 -.00001452  00000-0 -78662-4 0  9993","MEAN_ELEMENT_THEORY":"SGP4","GP_ID":"208604180","ECCENTRICITY":"0.00014370","ELEMENT_SET_NO":"999","NORAD_CAT_ID":"48569","TIME_SYSTEM":"UTC","EPHEMERIS_TYPE":"0","CLASSIFICATION_TYPE":"U","OBJECT_ID":"2021-041S","COUNTRY_CODE":"US","APOAPSIS":"548.268","PERIOD":"95.593","MEAN_ANOMALY":"295.1367","PERIAPSIS":"546.278","SITE":"AFETR","EPOCH":"2022-07-21T19:48:28.696896","BSTAR":"-0.00007866200000"},{"SEMIMAJOR_AXIS":"6925.424","RA_OF_ASC_NODE":"338.2024","REF_FRAME":"TEME","LAUNCH_DATE":"2021-05-15","MEAN_MOTION":"15.06375488","MEAN_MOTION_DOT":"-0.00005463","CENTER_NAME":"EARTH","DECAY_DATE":null,"OBJECT_NAME":"STARLINK-2220","MEAN_MOTION_DDOT":"0.0000000000000","OBJECT_TYPE":"PAYLOAD","ARG_OF_PERICENTER":"77.9763","REV_AT_EPOCH":"6506","INCLINATION":"53.0562","RCS_SIZE":"LARGE","FILE":"3519265","TLE_LINE2":"2 48570  53.0562 338.2024 0001447  77.9763 282.1388 15.06375488 65060","COUNTRY_CODE":"US","OBJECT_ID":"2021-041T","CLASSIFICATION_TYPE":"U","EPHEMERIS_TYPE":"0","PERIAPSIS":"546.287","MEAN_ANOMALY":"282.1388","PERIOD":"95.594","APOAPSIS":"548.291","EPOCH":"2022-07-21T19:31:12.951840","BSTAR":"-0.00034839000000","SITE":"AFETR","TLE_LINE1":"1 48570U 21041T   22202.81334435 -.00005463  00000-0 -34839-3 0  9991","MEAN_ELEMENT_THEORY":"SGP4","NORAD_CAT_ID":"48570","ELEMENT_SET_NO":"999","ECCENTRICITY":"0.00014470","TIME_SYSTEM":"UTC","GP_ID":"208604927"},{"COUNTRY_CODE":"US","OBJECT_ID":"2021-041U","CLASSIFICATION_TYPE":"U","EPHEMERIS_TYPE":"0","PERIAPSIS":"546.267","MEAN_ANOMALY":"270.1772","PERIOD":"95.593","APOAPSIS":"548.244","EPOCH":"2022-07-21T19:41:50.305632","BSTAR":"-0.00002828700000","SITE":"AFETR","TLE_LINE1":"1 48571U 21041U   22202.82072113 -.00000703  00000-0 -28287-4 0  9998","MEAN_ELEMENT_THEORY":"SGP4","ELEMENT_SET_NO":"999","ECCENTRICITY":"0.00014270","NORAD_CAT_ID":"48571","TIME_SYSTEM":"UTC","GP_ID":"208580569","SEMIMAJOR_AXIS":"6925.391","REF_FRAME":"TEME","RA_OF_ASC_NODE":"338.1777","LAUNCH_DATE":"2021-05-15","MEAN_MOTION":"15.06386258","MEAN_MOTION_DOT":"-0.00000703","CENTER_NAME":"EARTH","DECAY_DATE":null,"OBJECT_NAME":"STARLINK-2221","MEAN_MOTION_DDOT":"0.0000000000000","OBJECT_TYPE":"PAYLOAD","ARG_OF_PERICENTER":"89.9381","REV_AT_EPOCH":"6547","INCLINATION":"53.0568","RCS_SIZE":"LARGE","FILE":"3519188","TLE_LINE2":"2 48571  53.0568 338.1777 0001427  89.9381 270.1772 15.06386258 65474"},{"TLE_LINE1":"1 48572U 21041V   22202.81702620 -.00001359  00000-0 -72399-4 0  9992","MEAN_ELEMENT_THEORY":"SGP4","GP_ID":"208603936","ELEMENT_SET_NO":"999","NORAD_CAT_ID":"48572","TIME_SYSTEM":"UTC","ECCENTRICITY":"0.00014380","EPHEMERIS_TYPE":"0","CLASSIFICATION_TYPE":"U","OBJECT_ID":"2021-041V","COUNTRY_CODE":"US","APOAPSIS":"548.226","PERIOD":"95.592","MEAN_ANOMALY":"264.5840","PERIAPSIS":"546.234","SITE":"AFETR","BSTAR":"-0.00007239900000","EPOCH":"2022-07-21T19:36:31.063680","ARG_OF_PERICENTER":"95.5312","REV_AT_EPOCH":"6507","RCS_SIZE":"LARGE","INCLINATION":"53.0556","TLE_LINE2":"2 48572  53.0556 338.1847 0001438  95.5312 264.5840 15.06394521 65070","FILE":"3519265","REF_FRAME":"TEME","RA_OF_ASC_NODE":"338.1847","SEMIMAJOR_AXIS":"6925.365","DECAY_DATE":null,"CENTER_NAME":"EARTH","MEAN_MOTION_DOT":"-0.00001359","MEAN_MOTION":"15.06394521","LAUNCH_DATE":"2021-05-15","OBJECT_TYPE":"PAYLOAD","MEAN_MOTION_DDOT":"0.0000000000000","OBJECT_NAME":"STARLINK-2222"},{"FILE":"3519265","TLE_LINE2":"2 48573  53.0556 328.5650 0001375  85.9166 274.1980 15.06401756 65190","INCLINATION":"53.0556","RCS_SIZE":"LARGE","REV_AT_EPOCH":"6519","ARG_OF_PERICENTER":"85.9166","MEAN_MOTION_DDOT":"0.0000000000000","OBJECT_NAME":"STARLINK-2224","OBJECT_TYPE":"PAYLOAD","MEAN_MOTION_DOT":"0.00000509","MEAN_MOTION":"15.06401756","LAUNCH_DATE":"2021-05-15","DECAY_DATE":null,"CENTER_NAME":"EARTH","RA_OF_ASC_NODE":"328.5650","REF_FRAME":"TEME","SEMIMAJOR_AXIS":"6925.343","TIME_SYSTEM":"UTC","ELEMENT_SET_NO":"999","NORAD_CAT_ID":"48573","ECCENTRICITY":"0.00013750","GP_ID":"208604681","MEAN_ELEMENT_THEORY":"SGP4","TLE_LINE1":"1 48573U 21041W   22202.72947473  .00000509  00000-0  53049-4 0  9995","BSTAR":"0.00005304900000","EPOCH":"2022-07-21T17:30:26.616672","SITE":"AFETR","MEAN_ANOMALY":"274.1980","PERIAPSIS":"546.256","APOAPSIS":"548.160","PERIOD":"95.592","OBJECT_ID":"2021-041W","CLASSIFICATION_TYPE":"U","COUNTRY_CODE":"US","EPHEMERIS_TYPE":"0"}];
